{"type": "FeatureCollection", "features": [ {"type": "Feature", "properties": {"norad_id": 31495, "name": "FENGYUN 1C DEB", "group": "fengyun-1c-debris", "lat": -62.6868922890964, "lon": 37.46826876532021, "alt_km": 807.6426975366503, "timestamp": "2025-12-27T17:24:57.688101+00:00", "meta": {"OBJECT_NAME": "FENGYUN 1C DEB", "OBJECT_ID": "1999-025BWJ", "EPOCH": "2025-12-20T09:32:47.149152", "MEAN_MOTION": 14.29252624, "ECCENTRICITY": 0.00255899, "INCLINATION": 99.12, "RA_OF_ASC_NODE": 227.9275, "ARG_OF_PERICENTER": 154.7696, "MEAN_ANOMALY": 205.474, "EPHEMERIS_TYPE": 0, "CLASSIFICATION_TYPE": "U", "NORAD_CAT_ID": 31495, "ELEMENT_SET_NO": 999, "REV_AT_EPOCH": 63500, "BSTAR": 0.00086082116, "MEAN_MOTION_DOT": 2.149e-05, "MEAN_MOTION_DDOT": 0}, "tle": {"line1": "1 31495U 99025BWJ 25354.39776793  .00002149  00000+0  86082-3 0  9999", "line2": "2 31495  99.1200 227.9275 0025589 154.7696 205.4740 14.29252624635009"}}, "geometry": {"type": "Point", "coordinates": [37.46826876532021, -62.6868922890964]}}, {"type": "Feature", "properties": {"norad_id": 31497, "name": "FENGYUN 1C DEB", "group": "fengyun-1c-debris", "lat": -33.35681326077969, "lon": 159.37570454802014, "alt_km": 753.5693311767172, "timestamp": "2025-12-27T17:24:57.688112+00:00", "meta": {"OBJECT_NAME": "FENGYUN 1C DEB", "OBJECT_ID": "1999-025BWL", "EPOCH": "2025-12-20T04:29:02.353920", "MEAN_MOTION": 14.39239205, "ECCENTRICITY": 0.01673435, "INCLINATION": 98.371, "RA_OF_ASC_NODE": 337.5747, "ARG_OF_PERICENTER": 320.7302, "MEAN_ANOMALY": 96.6636, "EPHEMERIS_TYPE": 0, "CLASSIFICATION_TYPE": "U", "NORAD_CAT_ID": 31497, "ELEMENT_SET_NO": 999, "REV_AT_EPOCH": 97662, "BSTAR": 0.00018663983, "MEAN_MOTION_DOT": 6.31e-06, "MEAN_MOTION_DDOT": 0}, "tle": {"line1": "1 31497U 99025BWL 25354.18683280  .00000631  00000+0  18664-3 0  9991", "line2": "2 31497  98.3710 337.5747 0167343 320.7302  96.6636 14.39239205976625"}}, "geometry": {"type": "Point", "coordinates": [159.37570454802014, -33.35681326077969]}}, {"type": "Feature", "properties": {"norad_id": 31498, "name": "FENGYUN 1C DEB", "group": "fengyun-1c-debris", "lat": 20.903816102451632, "lon": -31.77741358470263, "alt_km": 951.5009425214303, "timestamp": "2025-12-27T17:24:57.688122+00:00", "meta": {"OBJECT_NAME": "FENGYUN 1C DEB", "OBJECT_ID": "1999-025BWM", "EPOCH": "2025-12-20T21:23:31.452864", "MEAN_MOTION": 13.77022887, "ECCENTRICITY": 0.0219158, "INCLINATION": 98.4859, "RA_OF_ASC_NODE": 325.3849, "ARG_OF_PERICENTER": 122.8448, "MEAN_ANOMALY": 239.4012, "EPHEMERIS_TYPE": 0, "CLASSIFICATION_TYPE": "U", "NORAD_CAT_ID": 31498, "ELEMENT_SET_NO": 999, "REV_AT_EPOCH": 92846, "BSTAR": 0.0012225, "MEAN_MOTION_DOT": 1.406e-05, "MEAN_MOTION_DDOT": 0}, "tle": {"line1": "1 31498U 99025BWM 25354.89133626  .00001406  00000+0  12225-2 0  9991", "line2": "2 31498  98.4859 325.3849 0219158 122.8448 239.4012 13.77022887928464"}}, "geometry": {"type": "Point", "coordinates": [-31.77741358470263, 20.903816102451632]}}, {"type": "Feature", "properties": {"norad_id": 31503, "name": "FENGYUN 1C DEB", "group": "fengyun-1c-debris", "lat": -56.92129318604483, "lon": 34.12385846163607, "alt_km": 825.4490327527337, "timestamp": "2025-12-27T17:24:57.688132+00:00", "meta": {"OBJECT_NAME": "FENGYUN 1C DEB", "OBJECT_ID": "1999-025BWS", "EPOCH": "2025-12-23T21:09:21.265632", "MEAN_MOTION": 14.22635113, "ECCENTRICITY": 0.0048906, "INCLINATION": 100.0985, "RA_OF_ASC_NODE": 225.603, "ARG_OF_PERICENTER": 155.2657, "MEAN_ANOMALY": 205.0876, "EPHEMERIS_TYPE": 0, "CLASSIFICATION_TYPE": "U", "NORAD_CAT_ID": 31503, "ELEMENT_SET_NO": 999, "REV_AT_EPOCH": 64405, "BSTAR": 0.00094914, "MEAN_MOTION_DOT": 2.094e-05, "MEAN_MOTION_DDOT": 0}, "tle": {"line1": "1 31503U 99025BWS 25357.88149613  .00002094  00000+0  94914-3 0  9993", "line2": "2 31503 100.0985 225.6030 0048906 155.2657 205.0876 14.22635113644058"}}, "geometry": {"type": "Point", "coordinates": [34.12385846163607, -56.92129318604483]}}, {"type": "Feature", "properties": {"norad_id": 31507, "name": "FENGYUN 1C DEB", "group": "fengyun-1c-debris", "lat": 72.57080753470149, "lon": -119.06833611612794, "alt_km": 686.2896178583924, "timestamp": "2025-12-27T17:24:57.688142+00:00", "meta": {"OBJECT_NAME": "FENGYUN 1C DEB", "OBJECT_ID": "1999-025BWW", "EPOCH": "2025-12-27T08:44:16.131840", "MEAN_MOTION": 14.52227315, "ECCENTRICITY": 0.0117198, "INCLINATION": 98.1926, "RA_OF_ASC_NODE": 33.2631, "ARG_OF_PERICENTER": 33.4429, "MEAN_ANOMALY": 341.3839, "EPHEMERIS_TYPE": 0, "CLASSIFICATION_TYPE": "U", "NORAD_CAT_ID": 31507, "ELEMENT_SET_NO": 999, "REV_AT_EPOCH": 98233, "BSTAR": 0.00048695, "MEAN_MOTION_DOT": 2.114e-05, "MEAN_MOTION_DDOT": 0}, "tle": {"line1": "1 31507U 99025BWW 25361.36407560  .00002114  00000+0  48695-3 0  9991", "line2": "2 31507  98.1926  33.2631 0117198  33.4429 341.3839 14.52227315982331"}}, "geometry": {"type": "Point", "coordinates": [-119.06833611612794, 72.57080753470149]}}, {"type": "Feature", "properties": {"norad_id": 31508, "name": "FENGYUN 1C DEB", "group": "fengyun-1c-debris", "lat": -10.201101908540323, "lon": 112.5194823298214, "alt_km": 680.8701239438551, "timestamp": "2025-12-27T17:24:57.688152+00:00", "meta": {"OBJECT_NAME": "FENGYUN 1C DEB", "OBJECT_ID": "1999-025BWX", "EPOCH": "2025-12-27T05:58:19.610112", "MEAN_MOTION": 14.62878286, "ECCENTRICITY": 0.0031806, "INCLINATION": 98.6229, "RA_OF_ASC_NODE": 110.4568, "ARG_OF_PERICENTER": 279.7377, "MEAN_ANOMALY": 80.0232, "EPHEMERIS_TYPE": 0, "CLASSIFICATION_TYPE": "U", "NORAD_CAT_ID": 31508, "ELEMENT_SET_NO": 999, "REV_AT_EPOCH": 97136, "BSTAR": 0.0032307, "MEAN_MOTION_DOT": 0.00016619, "MEAN_MOTION_DDOT": 0}, "tle": {"line1": "1 31508U 99025BWX 25361.24883808  .00016619  00000+0  32307-2 0  9999", "line2": "2 31508  98.6229 110.4568 0031806 279.7377  80.0232 14.62878286971363"}}, "geometry": {"type": "Point", "coordinates": [112.5194823298214, -10.201101908540323]}}, {"type": "Feature", "properties": {"norad_id": 31509, "name": "FENGYUN 1C DEB", "group": "fengyun-1c-debris", "lat": -13.155256309327742, "lon": 122.78393571833665, "alt_km": 1061.6045740098407, "timestamp": "2025-12-27T17:24:57.688162+00:00", "meta": {"OBJECT_NAME": "FENGYUN 1C DEB", "OBJECT_ID": "1999-025BWY", "EPOCH": "2025-12-27T01:59:22.313760", "MEAN_MOTION": 13.94983596, "ECCENTRICITY": 0.02043419, "INCLINATION": 99.0214, "RA_OF_ASC_NODE": 120.0271, "ARG_OF_PERICENTER": 179.8222, "MEAN_ANOMALY": 180.3048, "EPHEMERIS_TYPE": 0, "CLASSIFICATION_TYPE": "U", "NORAD_CAT_ID": 31509, "ELEMENT_SET_NO": 999, "REV_AT_EPOCH": 94162, "BSTAR": 0.0020858357, "MEAN_MOTION_DOT": 3.299e-05, "MEAN_MOTION_DDOT": 0}, "tle": {"line1": "1 31509U 99025BWY 25361.08289715  .00003299  00000+0  20858-2 0  9997", "line2": "2 31509  99.0214 120.0271 0204341 179.8222 180.3048 13.94983596941626"}}, "geometry": {"type": "Point", "coordinates": [122.78393571833665, -13.155256309327742]}}, {"type": "Feature", "properties": {"norad_id": 31510, "name": "FENGYUN 1C DEB", "group": "fengyun-1c-debris", "lat": -80.38479163708797, "lon": 63.19997054577748, "alt_km": 791.5082640521059, "timestamp": "2025-12-27T17:24:57.688172+00:00", "meta": {"OBJECT_NAME": "FENGYUN 1C DEB", "OBJECT_ID": "1999-025BWZ", "EPOCH": "2025-12-20T19:32:19.154112", "MEAN_MOTION": 14.24579723, "ECCENTRICITY": 0.0036702, "INCLINATION": 98.5531, "RA_OF_ASC_NODE": 353.8036, "ARG_OF_PERICENTER": 307.7687, "MEAN_ANOMALY": 180.91, "EPHEMERIS_TYPE": 0, "CLASSIFICATION_TYPE": "U", "NORAD_CAT_ID": 31510, "ELEMENT_SET_NO": 999, "REV_AT_EPOCH": 96602, "BSTAR": 0.00036270315, "MEAN_MOTION_DOT": 8.05e-06, "MEAN_MOTION_DDOT": 0}, "tle": {"line1": "1 31510U 99025BWZ 25354.81411058  .00000805  00000+0  36270-3 0  9995", "line2": "2 31510  98.5531 353.8036 0036702 307.7687 180.9100 14.24579723966023"}}, "geometry": {"type": "Point", "coordinates": [63.19997054577748, -80.38479163708797]}}, {"type": "Feature", "properties": {"norad_id": 31511, "name": "FENGYUN 1C DEB", "group": "fengyun-1c-debris", "lat": 78.50591220223052, "lon": 42.70272799378236, "alt_km": 785.1809526458364, "timestamp": "2025-12-27T17:24:57.688182+00:00", "meta": {"OBJECT_NAME": "FENGYUN 1C DEB", "OBJECT_ID": "1999-025BXA", "EPOCH": "2025-12-26T22:27:40.404384", "MEAN_MOTION": 14.2817164, "ECCENTRICITY": 0.0109088, "INCLINATION": 99.0674, "RA_OF_ASC_NODE": 170.1315, "ARG_OF_PERICENTER": 186.1054, "MEAN_ANOMALY": 173.8803, "EPHEMERIS_TYPE": 0, "CLASSIFICATION_TYPE": "U", "NORAD_CAT_ID": 31511, "ELEMENT_SET_NO": 999, "REV_AT_EPOCH": 96003, "BSTAR": 0.0016121, "MEAN_MOTION_DOT": 4.231e-05, "MEAN_MOTION_DDOT": 0}, "tle": {"line1": "1 31511U 99025BXA 25360.93588431  .00004231  00000+0  16121-2 0  9995", "line2": "2 31511  99.0674 170.1315 0109088 186.1054 173.8803 14.28171640960039"}}, "geometry": {"type": "Point", "coordinates": [42.70272799378236, 78.50591220223052]}}, {"type": "Feature", "properties": {"norad_id": 31512, "name": "FENGYUN 1C DEB", "group": "fengyun-1c-debris", "lat": 73.69302512350713, "lon": 109.61696251679994, "alt_km": 635.533289249287, "timestamp": "2025-12-27T17:24:57.688193+00:00", "meta": {"OBJECT_NAME": "FENGYUN 1C DEB", "OBJECT_ID": "1999-025BXB", "EPOCH": "2025-12-26T22:56:13.178976", "MEAN_MOTION": 14.43862035, "ECCENTRICITY": 0.01448, "INCLINATION": 98.8041, "RA_OF_ASC_NODE": 256.8313, "ARG_OF_PERICENTER": 104.6851, "MEAN_ANOMALY": 319.1481, "EPHEMERIS_TYPE": 0, "CLASSIFICATION_TYPE": "U", "NORAD_CAT_ID": 31512, "ELEMENT_SET_NO": 999, "REV_AT_EPOCH": 65707, "BSTAR": 0.00046314, "MEAN_MOTION_DOT": 1.742e-05, "MEAN_MOTION_DDOT": 0}, "tle": {"line1": "1 31512U 99025BXB 25360.95570809  .00001742  00000+0  46314-3 0  9990", "line2": "2 31512  98.8041 256.8313 0144800 104.6851 319.1481 14.43862035657072"}}, "geometry": {"type": "Point", "coordinates": [109.61696251679994, 73.69302512350713]}}]}